NORAD_CAT_ID,OBJECT_NAME,OBJECT_TYPE,EPOCH,MEAN_MOTION,ECCENTRICITY,INCLINATION,RA_OF_ASC_NODE,ARG_OF_PERICENTER,MEAN_ANOMALY,BSTAR,MEAN_MOTION_DOT,MEAN_MOTION_DDOT,TLE_LINE0,TLE_LINE1,TLE_LINE2,SEMIMAJOR_AXIS,PERIOD,APOGEE,PERIGEE,DECAYED
50843.0,STARLINK-3325,PAYLOAD,2024-06-08 22:40:58,15.08840275,0.0001333,53.2148,166.5545,87.9703,272.1442,7.325e-05,8.78e-06,0.0,0 STARLINK-3325,1 50843U 22001AS  24160.94511695  .00000878  00000-0  73250-4 0  9992,2 50843  53.2148 166.5545 0001333  87.9703 272.1442 15.08840275133831,6917.88,95.438,540.667,538.822,0.0
50843.0,STARLINK-3325,PAYLOAD,2024-06-09 05:02:30,15.08832732,0.0001011,53.2162,165.3634,94.6991,265.4117,0.00013925,1.929e-05,0.0,0 STARLINK-3325,1 50843U 22001AS  24161.21007989  .00001929  00000-0  13925-3 0  9999,2 50843  53.2162 165.3634 0001011  94.6991 265.4117 15.08832732135071,6917.903,95.438,540.467,539.068,0.0
50843.0,STARLINK-3325,PAYLOAD,2024-06-09 09:48:40,15.08840138,0.0001288,53.2161,164.4724,91.358,268.756,1.06e-05,-1.19e-06,0.0,0 STARLINK-3325,1 50843U 22001AS  24161.40879884 -.00000119  00000-0  10600-4 0  9990,2 50843  53.2161 164.4724 0001288  91.3580 268.7560 15.08840138133901,6917.88,95.438,540.636,538.854,0.0
50843.0,STARLINK-3325,PAYLOAD,2024-06-09 17:45:35,15.0884211,0.0001296,53.2163,162.9856,91.2597,268.8544,3.1205e-05,2.09e-06,0.0,0 STARLINK-3325,1 50843U 22001AS  24161.73999657  .00000209  00000-0  31205-4 0  9990,2 50843  53.2163 162.9856 0001296  91.2597 268.8544 15.08842110133958,6917.874,95.437,540.635,538.842,0.0
50843.0,STARLINK-3325,PAYLOAD,2024-06-10 04:53:17,15.08844773,0.0001304,53.216,160.9061,84.6502,275.4639,1.5696e-05,-3.8e-07,0.0,0 STARLINK-3325,1 50843U 22001AS  24162.20367507 -.00000038  00000-0  15696-4 0  9993,2 50843  53.2160 160.9061 0001304  84.6502 275.4639 15.08844773135221,6917.866,95.437,540.633,538.829,0.0
50843.0,STARLINK-3325,PAYLOAD,2024-06-10 06:28:40,15.08845266,0.0001298,53.2159,160.6085,85.432,274.682,2.2241e-05,6.6e-07,0.0,0 STARLINK-3325,1 50843U 22001AS  24162.26991446  .00000066  00000-0  22241-4 0  9998,2 50843  53.2159 160.6085 0001298  85.4320 274.6820 15.08845266134030,6917.864,95.437,540.627,538.831,0.0
50843.0,STARLINK-3325,PAYLOAD,2024-06-11 06:19:27,15.08841621,0.0001336,53.2163,156.1479,84.8237,275.2907,0.00010079,1.317e-05,0.0,0 STARLINK-3325,1 50843U 22001AS  24163.26351438  .00001317  00000-0  10079-3 0  9995,2 50843  53.2163 156.1479 0001336  84.8237 275.2907 15.08841621134185,6917.875,95.437,540.665,538.816,0.0
50843.0,STARLINK-3325,PAYLOAD,2024-06-12 06:10:14,15.08842313,0.0001349,53.2163,151.6879,84.6906,275.424,7.2343e-05,8.64e-06,0.0,0 STARLINK-3325,1 50843U 22001AS  24164.25711468  .00000864  00000-0  72343-4 0  9997,2 50843  53.2163 151.6879 0001349  84.6906 275.4240 15.08842313135535,6917.873,95.437,540.672,538.805,0.0
50843.0,STARLINK-3325,PAYLOAD,2024-06-12 22:04:06,15.0883668,0.0001378,53.2165,148.7155,86.0061,274.1088,2.0703e-05,4.2e-07,0.0,0 STARLINK-3325,1 50843U 22001AS  24164.91951987  .00000042  00000-0  20703-4 0  9993,2 50843  53.2165 148.7155 0001378  86.0061 274.1088 15.08836680134435,6917.891,95.438,540.709,538.802,0.0
50843.0,STARLINK-3325,PAYLOAD,2024-06-13 06:01:02,15.08836989,0.0001397,53.217,147.2287,86.1145,274.0007,1.4491e-05,-5.7e-07,0.0,0 STARLINK-3325,1 50843U 22001AS  24165.25072038 -.00000057  00000-0  14491-4 0  9996,2 50843  53.2170 147.2287 0001397  86.1145 274.0007 15.08836989135686,6917.89,95.438,540.721,538.788,0.0
50843.0,STARLINK-3325,PAYLOAD,2024-06-13 07:36:25,15.08837214,0.0001401,53.217,146.9313,85.957,274.1582,1.4983e-05,-4.9e-07,0.0,0 STARLINK-3325,1 50843U 22001AS  24165.31696030 -.00000049  00000-0  14983-4 0  9994,2 50843  53.2170 146.9313 0001401  85.9570 274.1582 15.08837214134496,6917.889,95.438,540.723,538.785,0.0
50843.0,STARLINK-3325,PAYLOAD,2024-06-13 15:33:21,15.08834817,0.0001395,53.217,145.4444,85.1567,274.9584,5.7842e-07,-2.79e-06,0.0,0 STARLINK-3325,1 50843U 22001AS  24165.64816278 -.00000279  00000-0  57842-6 0  9996,2 50843  53.2170 145.4444 0001395  85.1567 274.9584 15.08834817134547,6917.896,95.438,540.726,538.796,0.0
50843.0,STARLINK-3325,PAYLOAD,2024-06-14 05:51:49,15.08832475,0.0001408,53.2171,142.7686,89.1467,270.9686,-1.0562e-05,-4.56e-06,0.0,0 STARLINK-3325,1 50843U 22001AS  24166.24432724 -.00000456  00000-0 -10562-4 0  9997,2 50843  53.2171 142.7686 0001408  89.1467 270.9686 15.08832475134631,6917.903,95.438,540.742,538.794,0.0
50843.0,STARLINK-3325,PAYLOAD,2024-06-14 21:45:40,15.0883716,0.0001417,53.2177,139.7949,92.5406,267.5748,7.6722e-05,9.33e-06,0.0,0 STARLINK-3325,1 50843U 22001AS  24166.90672351  .00000933  00000-0  76722-4 0  9990,2 50843  53.2177 139.7949 0001417  92.5406 267.5748 15.08837160134734,6917.889,95.438,540.734,538.774,0.0
50843.0,STARLINK-3325,PAYLOAD,2024-06-15 05:42:36,15.08842356,0.0001397,53.2174,138.3078,91.4002,268.715,0.00010305,1.353e-05,0.0,0 STARLINK-3325,1 50843U 22001AS  24167.23791986  .00001353  00000-0  10305-3 0  9994,2 50843  53.2174 138.3078 0001397  91.4002 268.7150 15.08842356134784,6917.873,95.437,540.705,538.772,0.0
50843.0,STARLINK-3325,PAYLOAD,2024-06-15 21:36:27,15.0883736,0.0001405,53.217,135.3346,91.4376,268.6777,0.00010154,1.328e-05,0.0,0 STARLINK-3325,1 50843U 22001AS  24167.90032363  .00001328  00000-0  10154-3 0  9999,2 50843  53.2170 135.3346 0001405  91.4376 268.6777 15.08837360134883,6917.888,95.438,540.725,538.781,0.0
50843.0,STARLINK-3325,PAYLOAD,2024-06-16 05:33:23,15.08841734,0.0001466,53.217,133.8477,91.7321,268.3839,9.4524e-05,1.217e-05,0.0,0 STARLINK-3325,1 50843U 22001AS  24168.23152213  .00001217  00000-0  94524-4 0  9994,2 50843  53.2170 133.8477 0001466  91.7321 268.3839 15.08841734134933,6917.875,95.437,540.754,538.726,0.0
50843.0,STARLINK-3325,PAYLOAD,2024-06-16 15:05:42,15.08834717,0.0001421,53.2163,132.0628,88.528,271.5875,5.3014e-05,5.56e-06,0.0,0 STARLINK-3325,1 50843U 22001AS  24168.62896821  .00000556  00000-0  53014-4 0  9991,2 50843  53.2163 132.0628 0001421  88.5280 271.5875 15.08834717134998,6917.897,95.438,540.745,538.779,0.0
50843.0,STARLINK-3325,PAYLOAD,2024-06-17 14:56:29,15.08837853,0.0001482,53.2165,127.6016,94.0619,266.0542,4.2771e-06,-2.2e-06,0.0,0 STARLINK-3325,1 50843U 22001AS  24169.62256785 -.00000220  00000-0  42771-5 0  9999,2 50843  53.2165 127.6016 0001482  94.0619 266.0542 15.08837853135148,6917.887,95.438,540.777,538.727,0.0
50843.0,STARLINK-3325,PAYLOAD,2024-06-18 03:39:34,15.08841753,0.0001462,53.2164,125.2231,90.5118,269.6041,4.0722e-05,3.6e-06,0.0,0 STARLINK-3325,1 50843U 22001AS  24170.15248449  .00000360  00000-0  40722-4 0  9994,2 50843  53.2164 125.2231 0001462  90.5118 269.6041 15.08841753136422,6917.875,95.437,540.751,538.729,0.0
50843.0,STARLINK-3325,PAYLOAD,2024-06-18 06:50:20,15.08843567,0.0001479,53.2164,124.6282,90.7914,269.3248,5.4593e-05,5.81e-06,0.0,0 STARLINK-3325,1 50843U 22001AS  24170.28496274  .00000581  00000-0  54593-4 0  9995,2 50843  53.2164 124.6282 0001479  90.7914 269.3248 15.08843567135245,6917.869,95.437,540.758,538.711,0.0
50843.0,STARLINK-3325,PAYLOAD,2024-06-19 03:30:21,15.08839967,0.0001544,53.2174,120.7593,95.7858,264.331,7.0733e-05,8.38e-06,0.0,0 STARLINK-3325,1 50843U 22001AS  24171.14608566  .00000838  00000-0  70733-4 0  9999,2 50843  53.2174 120.7593 0001544  95.7858 264.3310 15.08839967135371,6917.88,95.438,540.814,538.677,0.0
50843.0,STARLINK-3325,PAYLOAD,2024-06-19 20:59:36,15.0883492,0.0001436,53.2174,117.4915,92.3434,267.7722,-1.1914e-05,-4.78e-06,0.0,0 STARLINK-3325,1 50843U 22001AS  24171.87473244 -.00000478  00000-0 -11914-4 0  9990,2 50843  53.2174 117.4915 0001436  92.3434 267.7722 15.08834920136688,6917.896,95.438,540.754,538.768,0.0
50843.0,STARLINK-3325,PAYLOAD,2024-06-20 03:21:09,15.08837499,0.0001374,53.2175,116.3043,92.3837,267.7312,1.0392e-05,-1.23e-06,0.0,0 STARLINK-3325,1 50843U 22001AS  24172.13969087 -.00000123  00000-0  10392-4 0  9990,2 50843  53.2175 116.3043 0001374  92.3837 267.7312 15.08837499135528,6917.888,95.438,540.704,538.803,0.0
50843.0,STARLINK-3325,PAYLOAD,2024-06-20 19:15:01,15.08819863,0.0001366,53.218,113.3318,101.0254,259.0891,0.00025671,3.798e-05,0.0,0 STARLINK-3325,1 50843U 22001AS  24172.80209712  .00003798  00000-0  25671-3 0  9991,2 50843  53.2180 113.3318 0001366 101.0254 259.0891 15.08819863135620,6917.942,95.439,540.752,538.862,0.0
50843.0,STARLINK-3325,PAYLOAD,2024-06-21 00:01:10,15.0883676,0.0001421,53.2182,112.4396,96.8618,263.2536,-1.832e-06,-3.17e-06,0.0,0 STARLINK-3325,1 50843U 22001AS  24173.00081339 -.00000317  00000-0 -18320-5 0  9998,2 50843  53.2182 112.4396 0001421  96.8618 263.2536 15.08836760136859,6917.89,95.438,540.738,538.772,0.0
50843.0,STARLINK-3325,PAYLOAD,2024-06-21 01:36:33,15.08836794,0.0001409,53.2179,112.1422,96.6861,263.4291,-1.4231e-06,-3.11e-06,0.0,0 STARLINK-3325,1 50843U 22001AS  24173.06705343 -.00000311  00000-0 -14231-5 0  9993,2 50843  53.2179 112.1422 0001409  96.6861 263.4291 15.08836794135661,6917.89,95.438,540.73,538.78,0.0
50843.0,STARLINK-3325,PAYLOAD,2024-06-22 04:38:06,15.08839834,0.0001389,53.2178,107.0865,92.3014,267.8137,6.4745e-05,7.43e-06,0.0,0 STARLINK-3325,1 50843U 22001AS  24174.19313210  .00000743  00000-0  64745-4 0  9997,2 50843  53.2178 107.0865 0001389  92.3014 267.8137 15.08839834137032,6917.881,95.438,540.707,538.785,0.0
50843.0,STARLINK-3325,PAYLOAD,2024-06-22 18:56:35,15.08838863,0.0001451,53.2179,104.4082,95.738,264.3778,3.196e-05,2.21e-06,0.0,0 STARLINK-3325,1 50843U 22001AS  24174.78929450  .00000221  00000-0  31960-4 0  9995,2 50843  53.2179 104.4082 0001451  95.7380 264.3778 15.08838863135928,6917.884,95.438,540.753,538.745,0.0
50843.0,STARLINK-3325,PAYLOAD,2024-06-23 02:53:30,15.08842206,0.0001431,53.2176,102.9213,91.9069,268.2087,5.8565e-05,6.44e-06,0.0,0 STARLINK-3325,1 50843U 22001AS  24175.12049156  .00000644  00000-0  58565-4 0  9999,2 50843  53.2176 102.9213 0001431  91.9069 268.2087 15.08842206135971,6917.874,95.437,540.729,538.749,0.0
